CTC1_L_00186016-03
1 53942U 26060ST  26070.40833333  .00000000  00000+0  00000-0 0  9998
2 53942  70.0000 180.0000 0000000   0.0000   0.0000 13.69880518    11
CTC1_L_00186016-04
1 53943U 25857AB  26070.40833333  .00000000  00000+0  00000-0 0  9992
2 53943  70.0000 180.0000 0000000   0.0000  90.0000 13.69880518    11
CTC1_L_00186017-01
1 53944U 25578QH  26070.40833333  .00000000  00000+0  00000-0 0  9993
2 53944  70.0000 192.0000 0000000   0.0000 192.0000 13.69880518    18
CTC1_L_00186017-02
1 53945U 24594WU  26070.40833333  .00000000  00000+0  00000-0 0  9991
2 53945  70.0000 192.0000 0000000   0.0000 282.0000 13.69880518    19
CTC1_L_00186017-03
1 53946U 22340RR  26070.40833333  .00000000  00000+0  00000-0 0  9999
2 53946  70.0000 192.0000 0000000   0.0000  12.0000 13.69880518    11
CTC1_L_00186017-04
1 53947U 23835ZD  26070.40833333  .00000000  00000+0  00000-0 0  9990
2 53947  70.0000 192.0000 0000000   0.0000 102.0000 13.69880518    12
CTC1_L_00186018-01
1 53948U 26974BW  26070.40833333  .00000000  00000+0  00000-0 0  9998
2 53948  70.0000 204.0000 0000000   0.0000 204.0000 13.69880518    10
CTC1_L_00186018-02
1 53949U 23414HA  26070.40833333  .00000000  00000+0  00000-0 0  9995
2 53949  70.0000 204.0000 0000000   0.0000 294.0000 13.69880518    10
CTC1_L_00186018-03
1 53950U 22654IQ  26070.40833333  .00000000  00000+0  00000-0 0  9992
2 53950  70.0000 204.0000 0000000   0.0000  24.0000 13.69880518    13
CTC1_L_00186018-04
1 53951U 26610ZB  26070.40833333  .00000000  00000+0  00000-0 0  9999
2 53951  70.0000 204.0000 0000000   0.0000 114.0000 13.69880518    14
CTC1_L_00186019-01
1 53952U 25440EK  26070.40833333  .00000000  00000+0  00000-0 0  9990
2 53952  70.0000 216.0000 0000000   0.0000 216.0000 13.69880518    11
CTC1_L_00186019-02
1 53953U 23128YF  26070.40833333  .00000000  00000+0  00000-0 0  9992
2 53953  70.0000 216.0000 0000000   0.0000 306.0000 13.69880518    12
CTC1_L_00186019-03
1 53954U 22299RP  26070.40833333  .00000000  00000+0  00000-0 0  9991
2 53954  70.0000 216.0000 0000000   0.0000  36.0000 13.69880518    13
CTC1_L_00186019-04
1 53955U 25442FT  26070.40833333  .00000000  00000+0  00000-0 0  9995
2 53955  70.0000 216.0000 0000000   0.0000 126.0000 13.69880518    14
CTC1_L_00186020-01
1 53956U 24774LG  26070.40833333  .00000000  00000+0  00000-0 0  9993
2 53956  70.0000 228.0000 0000000   0.0000 228.0000 13.69880518    11
CTC1_L_00186020-02
1 53957U 23628ZS  26070.40833333  .00000000  00000+0  00000-0 0  9991
2 53957  70.0000 228.0000 0000000   0.0000 318.0000 13.69880518    12
CTC1_L_00186020-03
1 53958U 25804GD  26070.40833333  .00000000  00000+0  00000-0 0  9990
2 53958  70.0000 228.0000 0000000   0.0000  48.0000 13.69880518    13
CTC1_L_00186020-04
1 53959U 22194QZ  26070.40833333  .00000000  00000+0  00000-0 0  9990
2 53959  70.0000 228.0000 0000000   0.0000 138.0000 13.69880518    14
CTC1_L_00186021-01
1 53960U 22957QL  26070.40833333  .00000000  00000+0  00000-0 0  9999
2 53960  70.0000 240.0000 0000000   0.0000 240.0000 13.69880518    14
CTC1_L_00186021-02
1 53961U 25382EX  26070.40833333  .00000000  00000+0  00000-0 0  9995
2 53961  70.0000 240.0000 0000000   0.0000 330.0000 13.69880518    15
CTC1_L_00186021-03
1 53962U 25997ZM  26070.40833333  .00000000  00000+0  00000-0 0  9998
2 53962  70.0000 240.0000 0000000   0.0000  60.0000 13.69880518    16
CTC1_L_00186021-04
1 53963U 22237OH  26070.40833333  .00000000  00000+0  00000-0 0  9993
2 53963  70.0000 240.0000 0000000   0.0000 150.0000 13.69880518    17
CTC1_L_00186022-01
1 53964U 22739EW  26070.40833333  .00000000  00000+0  00000-0 0  9991
2 53964  70.0000 252.0000 0000000   0.0000 252.0000 13.69880518    14
CTC1_L_00186022-02
1 53965U 23864RM  26070.40833333  .00000000  00000+0  00000-0 0  9992
2 53965  70.0000 252.0000 0000000   0.0000 342.0000 13.69880518    15
CTC1_L_00186022-03
1 53966U 26952ON  26070.40833333  .00000000  00000+0  00000-0 0  9994
2 53966  70.0000 252.0000 0000000   0.0000  72.0000 13.69880518    16
CTC1_L_00186022-04
1 53967U 26525XD  26070.40833333  .00000000  00000+0  00000-0 0  9991
2 53967  70.0000 252.0000 0000000   0.0000 162.0000 13.69880518    17
CTC1_L_00186023-01
1 53968U 22399Z   26070.40833333  .00000000  00000+0  00000-0 0  9997
2 53968  70.0000 264.0000 0000000   0.0000 264.0000 13.69880518    14
CTC1_L_00186023-02
1 53969U 24524WK  26070.40833333  .00000000  00000+0  00000-0 0  9990
2 53969  70.0000 264.0000 0000000   0.0000 354.0000 13.69880518    15
CTC1_L_00186023-03
1 53970U 22827IL  26070.40833333  .00000000  00000+0  00000-0 0  9996
2 53970  70.0000 264.0000 0000000   0.0000  84.0000 13.69880518    17
CTC1_L_00186023-04
1 53971U 22346RV  26070.40833333  .00000000  00000+0  00000-0 0  9993
2 53971  70.0000 264.0000 0000000   0.0000 174.0000 13.69880518    18
CTC1_L_00186024-01
1 53972U 26918JK  26070.40833333  .00000000  00000+0  00000-0 0  9993
2 53972  70.0000 276.0000 0000000   0.0000 276.0000 13.69880518    15
CTC1_L_00186024-02
1 53973U 23565SE  26070.40833333  .00000000  00000+0  00000-0 0  9999
2 53973  70.0000 276.0000 0000000   0.0000   6.0000 13.69880518    17
CTC1_L_00186024-03
1 53974U 25086F   26070.40833333  .00000000  00000+0  00000-0 0  9990
2 53974  70.0000 276.0000 0000000   0.0000  96.0000 13.69880518    17
CTC1_L_00186024-04
1 53975U 26795AB  26070.40833333  .00000000  00000+0  00000-0 0  9999
2 53975  70.0000 276.0000 0000000   0.0000 186.0000 13.69880518    18
CTC1_L_00186025-01
1 53976U 25242GY  26070.40833333  .00000000  00000+0  00000-0 0  9996
2 53976  70.0000 288.0000 0000000   0.0000 288.0000 13.69880518    15
CTC1_L_00186025-02
1 53977U 24544LI  26070.40833333  .00000000  00000+0  00000-0 0  9991
2 53977  70.0000 288.0000 0000000   0.0000  18.0000 13.69880518    17
CTC1_L_00186025-03
1 53978U 26308RU  26070.40833333  .00000000  00000+0  00000-0 0  9992
2 53978  70.0000 288.0000 0000000   0.0000 108.0000 13.69880518    18
CTC1_L_00186025-04
1 53979U 23805BA  26070.40833333  .00000000  00000+0  00000-0 0  9992
2 53979  70.0000 288.0000 0000000   0.0000 198.0000 13.69880518    18
CTC1_L_00186026-01
1 53980U 25028QH  26070.40833333  .00000000  00000+0  00000-0 0  9993
2 53980  70.0000 300.0000 0000000   0.0000 300.0000 13.69880518    10
CTC1_L_00186026-02
1 53981U 23608TP  26070.40833333  .00000000  00000+0  00000-0 0  9996
2 53981  70.0000 300.0000 0000000   0.0000  30.0000 13.69880518    11
CTC1_L_00186026-03
1 53982U 25367UJ  26070.40833333  .00000000  00000+0  00000-0 0  9991
2 53982  70.0000 300.0000 0000000   0.0000 120.0000 13.69880518    12
CTC1_L_00186026-04
1 53983U 23186EV  26070.40833333  .00000000  00000+0  00000-0 0  9999
2 53983  70.0000 300.0000 0000000   0.0000 210.0000 13.69880518    13
CTC1_L_00186027-01
1 53984U 24920RY  26070.40833333  .00000000  00000+0  00000-0 0  9997
2 53984  70.0000 312.0000 0000000   0.0000 312.0000 13.69880518    10
CTC1_L_00186027-02
1 53985U 26326ME  26070.40833333  .00000000  00000+0  00000-0 0  9990
2 53985  70.0000 312.0000 0000000   0.0000  42.0000 13.69880518    11
CTC1_L_00186027-03
1 53986U 23207D   26070.40833333  .00000000  00000+0  00000-0 0  9996
2 53986  70.0000 312.0000 0000000   0.0000 132.0000 13.69880518    12
CTC1_L_00186027-04
1 53987U 25840FF  26070.40833333  .00000000  00000+0  00000-0 0  9992
2 53987  70.0000 312.0000 0000000   0.0000 222.0000 13.69880518    13
CTC1_L_00186028-01
1 53988U 26998EF  26070.40833333  .00000000  00000+0  00000-0 0  9998
2 53988  70.0000 324.0000 0000000   0.0000 324.0000 13.69880518    10
CTC1_L_00186028-02
1 53989U 24650AL  26070.40833333  .00000000  00000+0  00000-0 0  9992
2 53989  70.0000 324.0000 0000000   0.0000  54.0000 13.69880518    11
CTC1_L_00186028-03
1 53990U 26014VC  26070.40833333  .00000000  00000+0  00000-0 0  9990
2 53990  70.0000 324.0000 0000000   0.0000 144.0000 13.69880518    13
CTC1_L_00186028-04
1 53991U 25347DX  26070.40833333  .00000000  00000+0  00000-0 0  9999
2 53991  70.0000 324.0000 0000000   0.0000 234.0000 13.69880518    14
CTC1_L_00186029-01
1 53992U 26266LP  26070.40833333  .00000000  00000+0  00000-0 0  9991
2 53992  70.0000 336.0000 0000000   0.0000 336.0000 13.69880518    11
CTC1_L_00186029-02
1 53993U 23602WD  26070.40833333  .00000000  00000+0  00000-0 0  9993
2 53993  70.0000 336.0000 0000000   0.0000  66.0000 13.69880518    12
CTC1_L_00186029-03
1 53994U 23940RG  26070.40833333  .00000000  00000+0  00000-0 0  9999
2 53994  70.0000 336.0000 0000000   0.0000 156.0000 13.69880518    13
CTC1_L_00186029-04
1 53995U 25578X   26070.40833333  .00000000  00000+0  00000-0 0  9999
2 53995  70.0000 336.0000 0000000   0.0000 246.0000 13.69880518    14
CTC1_L_00186030-01
1 53996U 22233H   26070.40833333  .00000000  00000+0  00000-0 0  9995
2 53996  70.0000 348.0000 0000000   0.0000 348.0000 13.69880518    11
CTC1_L_00186030-02
1 53997U 25843VH  26070.40833333  .00000000  00000+0  00000-0 0  9996
2 53997  70.0000 348.0000 0000000   0.0000  78.0000 13.69880518    12
CTC1_L_00186030-03
1 53998U 23689GU  26070.40833333  .00000000  00000+0  00000-0 0  9993
2 53998  70.0000 348.0000 0000000   0.0000 168.0000 13.69880518    13
CTC1_L_00186030-04
1 53999U 22445UF  26070.40833333  .00000000  00000+0  00000-0 0  9993
2 53999  70.0000 348.0000 0000000   0.0000 258.0000 13.69880518    14
